CSS (TIANHE)            
1 48274U 21035A   24098.52017189  .00033254  00000+0  33073-3 0  9997
2 48274  41.4681 154.9282 0008997 340.2949  19.7543 15.64972073168037
